0 DELTA 1 DEB
1 21281U 75052S   13287.14114642  .00000062  00000-0  21008-3 0  2644
2 21281 099.8648 348.4410 0056573 265.6999 147.9303 13.33702601 92842
0 DELTA 1 DEB
1 21281U 75052S   13289.15885976  .00000048  00000-0  18272-3 0  2656
2 21281 099.8642 350.3828 0056671 260.8243 115.6734 13.33703088 93110
0 DELTA 1 DEB
1 21281U 75052S   13291.19537964  .00000033  00000-0  15267-3 0  2660
2 21281 099.8637 352.3426 0056688 255.8806 173.7392 13.33703691 93381
0 DELTA 1 DEB
1 21281U 75052S   13293.21592480  .00000043  00000-0  17188-3 0  2675
2 21281 099.8634 354.2868 0056743 251.0053 155.0789 13.33703976 93652
0 DELTA 1 DEB
1 21281U 75052S   13296.14328414  .00000020  00000-0  12708-3 0  2683
2 21281 099.8634 357.1031 0056861 243.9689 170.3260 13.33704456 94044
